[{"OBJECT_NAME":"VIZARD-METEO (RS38S)","OBJECT_ID":"2023-091Z","EPOCH":"2026-03-09T23:01:09.168960","MEAN_MOTION":15.32764799,"ECCENTRICITY":0.00087615,"INCLINATION":97.5192,"RA_OF_ASC_NODE":136.6522,"ARG_OF_PERICENTER":71.7666,"MEAN_ANOMALY":288.4529,"EPHEMERIS_TYPE":0,"CLASSIFICATION_TYPE":"U","NORAD_CAT_ID":57189,"ELEMENT_SET_NO":999,"REV_AT_EPOCH":14947,"BSTAR":0.00066106249,"MEAN_MOTION_DOT":0.00020895,"MEAN_MOTION_DDOT":0},{"OBJECT_NAME":"STARLINK-34231","OBJECT_ID":"2025-113F","EPOCH":"2026-03-09T21:18:30.735936","MEAN_MOTION":15.30212238,"ECCENTRICITY":0.00014572,"INCLINATION":53.1582,"RA_OF_ASC_NODE":90.3401,"ARG_OF_PERICENTER":82.026,"MEAN_ANOMALY":278.0906,"EPHEMERIS_TYPE":0,"CLASSIFICATION_TYPE":"U","NORAD_CAT_ID":64175,"ELEMENT_SET_NO":999,"REV_AT_EPOCH":4509,"BSTAR":0.0009586691,"MEAN_MOTION_DOT":0.00028152,"MEAN_MOTION_DDOT":0}]
